{
    "links": {
        "self": "http://www.neowsapp.com/rest/v1/neo/3802395?api_key=iIulBulltgU6a56xZRHN4H3l9WmuAYTsLGpBGhQ2"
    },
    "id": "3802395",
    "neo_reference_id": "3802395",
    "name": "(2018 GH)",
    "designation": "2018 GH",
    "nasa_jpl_url": "http://ssd.jpl.nasa.gov/sbdb.cgi?sstr=3802395",
    "absolute_magnitude_h": 23.0,
    "estimated_diameter": {
        "kilometers": {
            "estimated_diameter_min": 0.0667659413,
            "estimated_diameter_max": 0.1492931834
        },
        "meters": {
            "estimated_diameter_min": 66.7659413495,
            "estimated_diameter_max": 149.2931834393
        },
        "miles": {
            "estimated_diameter_min": 0.0414864197,
            "estimated_diameter_max": 0.0927664547
        },
        "feet": {
            "estimated_diameter_min": 219.0483710172,
            "estimated_diameter_max": 489.807047955
        }
    },
    "is_potentially_hazardous_asteroid": false,
    "close_approach_data": [
        {
            "close_approach_date": "2018-04-25",
            "close_approach_date_full": "2018-Apr-25 09:00",
            "epoch_date_close_approach": 1524646800000,
            "relative_velocity": {
                "kilometers_per_second": "10.6946430939",
                "kilometers_per_hour": "38500.7151380562",
                "miles_per_hour": "23922.847136755"
            },
            "miss_distance": {
                "astronomical": "0.0373386824",
                "lunar": "14.5247474536",
                "kilometers": "5585787.355646488",
                "miles": "3470847.3174700144"
            },
            "orbiting_body": "Earth"
        },
        {
            "close_approach_date": "2188-07-22",
            "close_approach_date_full": "2188-Jul-22 18:54",
            "epoch_date_close_approach": 6897034440000,
            "relative_velocity": {
                "kilometers_per_second": "18.0672858986",
                "kilometers_per_hour": "65042.2292350601",
                "miles_per_hour": "40414.7118266405"
            },
            "miss_distance": {
                "astronomical": "0.341426874",
                "lunar": "132.815053986",
                "kilometers": "51076733.11115838",
                "miles": "31737610.262730444"
            },
            "orbiting_body": "Earth"
        },
        {
            "close_approach_date": "2191-05-27",
            "close_approach_date_full": "2191-May-27 08:09",
            "epoch_date_close_approach": 6986765340000,
            "relative_velocity": {
                "kilometers_per_second": "9.5083487609",
                "kilometers_per_hour": "34230.055539299",
                "miles_per_hour": "21269.2253432939"
            },
            "miss_distance": {
                "astronomical": "0.0737673163",
                "lunar": "28.6954860407",
                "kilometers": "11035433.394096281",
                "miles": "6857100.3431234378"
            },
            "orbiting_body": "Earth"
        },
        {
            "close_approach_date": "2194-03-31",
            "close_approach_date_full": "2194-Mar-31 18:18",
            "epoch_date_close_approach": 7076571480000,
            "relative_velocity": {
                "kilometers_per_second": "18.2761826149",
                "kilometers_per_hour": "65794.2574137775",
                "miles_per_hour": "40881.9928913553"
            },
            "miss_distance": {
                "astronomical": "0.2973778132",
                "lunar": "115.6799693348",
                "kilometers": "44487087.439977884",
                "miles": "27642994.3125234392"
            },
            "orbiting_body": "Earth"
        }
    ],
    "orbital_data": {
        "orbit_id": "10",
        "orbit_determination_date": "2018-04-26 06:52:50",
        "first_observation_date": "2018-04-05",
        "last_observation_date": "2018-04-22",
        "data_arc_in_days": 17,
        "observations_used": 90,
        "orbit_uncertainty": "8",
        "minimum_orbit_intersection": ".0321234",
        "jupiter_tisserand_invariant": "3.595",
        "epoch_osculation": "2458217.5",
        "eccentricity": ".5295849355094402",
        "semi_major_axis": "2.04340060039156",
        "inclination": "9.650723200408111",
        "ascending_node_longitude": "46.14934181521301",
        "orbital_period": "1066.912250574353",
        "perihelion_distance": ".9612464252132442",
        "perihelion_argument": "193.3075750173156",
        "aphelion_distance": "3.125554775569875",
        "perihelion_time": "2458252.726370064198",
        "mean_anomaly": "348.1138367131089",
        "mean_motion": ".3374223136028295",
        "equinox": "J2000",
        "orbit_class": {
            "orbit_class_type": "APO",
            "orbit_class_description": "Near-Earth asteroid orbits which cross the Earth’s orbit similar to that of 1862 Apollo",
            "orbit_class_range": "a (semi-major axis) > 1.0 AU; q (perihelion) < 1.017 AU"
        }
    },
    "is_sentry_object": false
}